COMMENT,ORIGINATOR,NORAD_CAT_ID,OBJECT_NAME,OBJECT_TYPE,CLASSIFICATION_TYPE,INTLDES,EPOCH,EPOCH_MICROSECONDS,MEAN_MOTION,ECCENTRICITY,INCLINATION,RA_OF_ASC_NODE,ARG_OF_PERICENTER,MEAN_ANOMALY,EPHEMERIS_TYPE,ELEMENT_SET_NO,REV_AT_EPOCH,BSTAR,MEAN_MOTION_DOT,MEAN_MOTION_DDOT,FILE,TLE_LINE0,TLE_LINE1,TLE_LINE2,OBJECT_ID,OBJECT_NUMBER,SEMIMAJOR_AXIS,PERIOD,APOGEE,PERIGEE,DECAYED,date
GENERATED VIA SPACETRACK.ORG API,18 SPCS,46301,SPACEBEE-20,PAYLOAD,U,20061AF,2023/2/16 11:32,104128,15.35680049,0.000113,97.4259,123.057,295.8434,64.2693,0,999,13571,0.0038098,0.00134295,0,3798293,0 SPACEBEE-20,1 46301U 20061AF  23047.48075352  .00134295  00000-0  38098-2 0  9997,2 46301  97.4259 123.0570 0001130 295.8434  64.2693 15.35680049135718,2020-061AF,46301,6837.038,93.77,459.676,458.131,1,2023/4/26
GENERATED VIA SPACETRACK.ORG API,18 SPCS,46301,SPACEBEE-20,PAYLOAD,U,20061AF,2023/2/17 4:44,751008,15.358528,0.000116,97.4249,123.7786,290.8286,69.2833,0,999,13582,0.0027461,0.00096831,0,3800178,0 SPACEBEE-20,1 46301U 20061AF  23048.19747397  .00096831  00000-0  27461-2 0  9996,2 46301  97.4249 123.7786 0001160 290.8286  69.2833 15.35852800135825,2020-061AF,46301,6836.526,93.759,459.184,457.598,1,2023/4/27
GENERATED VIA SPACETRACK.ORG API,18 SPCS,46301,SPACEBEE-20,PAYLOAD,U,20061AF,2023/2/17 15:41,997184,15.35935703,0.000133,97.425,124.2393,291.1389,68.9712,0,999,13589,0.0026048,0.0009203,0,3804075,0 SPACEBEE-20,1 46301U 20061AF  23048.65353006  .00092030  00000-0  26048-2 0  9994,2 46301  97.4250 124.2393 0001330 291.1389  68.9712 15.35935703135897,2020-061AF,46301,6836.28,93.754,459.054,457.235,1,2023/4/28
GENERATED VIA SPACETRACK.ORG API,18 SPCS,46301,SPACEBEE-20,PAYLOAD,U,20061AF,2023/2/18 4:11,781568,15.36022089,0.0001392,97.4252,124.7642,290.5618,69.5477,0,999,13597,0.0021874,0.00077334,0,3806045,0 SPACEBEE-20,1 46301U 20061AF  23049.17470812  .00077334  00000-0  21874-2 0  9999,2 46301  97.4252 124.7642 0001392 290.5618  69.5477 15.36022089135976,2020-061AF,46301,6836.023,93.749,458.84,456.937,1,2023/4/29
GENERATED VIA SPACETRACK.ORG API,18 SPCS,46301,SPACEBEE-20,PAYLOAD,U,20061AF,2023/2/18 4:11,781568,15.36022089,0.0001392,97.4252,124.7642,290.5618,69.5477,0,999,13597,0.0021874,0.00077334,0,3807124,0 SPACEBEE-20,1 46301U 20061AF  23049.17470812  .00077334  00000-0  21874-2 0  9999,2 46301  97.4252 124.7642 0001392 290.5618  69.5477 15.36022089135976,2020-061AF,46301,6836.023,93.749,458.84,456.937,1,2023/4/30
GENERATED VIA SPACETRACK.ORG API,18 SPCS,46301,SPACEBEE-20,PAYLOAD,U,20061AF,2023/2/19 11:27,376864,15.36234024,0.0001406,97.4249,126.0786,289.1752,70.9339,0,999,13617,0.0024633,0.00087811,0,3810774,0 SPACEBEE-20,1 46301U 20061AF  23050.47752751  .00087811  00000-0  24633-2 0  9996,2 46301  97.4249 126.0786 0001406 289.1752  70.9339 15.36234024136175,2020-061AF,46301,6835.395,93.736,458.221,456.299,1,
GENERATED VIA SPACETRACK.ORG API,18 SPCS,46301,SPACEBEE-20,PAYLOAD,U,20061AF,2023/2/19 11:27,376864,15.36234024,0.0001406,97.4249,126.0786,289.1752,70.9339,0,999,13617,0.0024633,0.00087811,0,3811610,0 SPACEBEE-20,1 46301U 20061AF  23050.47752751  .00087811  00000-0  24633-2 0  9996,2 46301  97.4249 126.0786 0001406 289.1752  70.9339 15.36234024136175,2020-061AF,46301,6835.395,93.736,458.221,456.299,1,
GENERATED VIA SPACETRACK.ORG API,18 SPCS,46301,SPACEBEE-20,PAYLOAD,U,20061AF,2023/2/20 4:39,974112,15.36345857,0.0001483,97.4242,126.801,280.5674,79.5403,0,999,13628,0.0021472,0.00076695,0,3814178,0 SPACEBEE-20,1 46301U 20061AF  23051.19400433  .00076695  00000-0  21472-2 0  9999,2 46301  97.4242 126.8010 0001483 280.5674  79.5403 15.36345857136285,2020-061AF,46301,6835.063,93.729,457.941,455.914,1,
GENERATED VIA SPACETRACK.ORG API,18 SPCS,46301,SPACEBEE-20,PAYLOAD,U,20061AF,2023/2/20 10:54,200192,15.36383995,0.0001492,97.424,127.0641,281.0548,79.0528,0,999,13632,0.0021985,0.00078645,0,3815761,0 SPACEBEE-20,1 46301U 20061AF  23051.45452778  .00078645  00000-0  21985-2 0  9993,2 46301  97.4240 127.0641 0001492 281.0548  79.0528 15.36383995136325,2020-061AF,46301,6834.95,93.727,457.835,455.795,1,
GENERATED VIA SPACETRACK.ORG API,18 SPCS,46301,SPACEBEE-20,PAYLOAD,U,20061AF,2023/2/21 4:06,526528,15.36501882,0.0001573,97.4236,127.7865,276.9072,83.1993,0,999,13643,0.0022526,0.00080912,0,3819803,0 SPACEBEE-20,1 46301U 20061AF  23052.17093202  .00080912  00000-0  22526-2 0  9998,2 46301  97.4236 127.7865 0001573 276.9072  83.1993 15.36501882136431,2020-061AF,46301,6834.6,93.719,457.54,455.39,1,
GENERATED VIA SPACETRACK.ORG API,18 SPCS,46301,SPACEBEE-20,PAYLOAD,U,20061AF,2023/2/21 18:10,898304,15.36615715,0.0001595,97.4232,128.3782,277.0481,83.0582,0,999,13652,0.0025615,0.00092496,0,3820520,0 SPACEBEE-20,1 46301U 20061AF  23052.75703586  .00092496  00000-0  25615-2 0  9997,2 46301  97.4232 128.3782 0001595 277.0481  83.0582 15.36615715136526,2020-061AF,46301,6834.263,93.712,457.218,455.038,1,
GENERATED VIA SPACETRACK.ORG API,18 SPCS,46301,SPACEBEE-20,PAYLOAD,U,20061AF,2023/2/21 18:10,898304,15.36615715,0.0001595,97.4232,128.3782,277.0481,83.0582,0,999,13652,0.0025615,0.00092496,0,3821329,0 SPACEBEE-20,1 46301U 20061AF  23052.75703586  .00092496  00000-0  25615-2 0  9997,2 46301  97.4232 128.3782 0001595 277.0481  83.0582 15.36615715136526,2020-061AF,46301,6834.263,93.712,457.218,455.038,1,
GENERATED VIA SPACETRACK.ORG API,18 SPCS,46301,SPACEBEE-20,PAYLOAD,U,20061AF,2023/2/22 5:06,556736,15.36699424,0.0001542,97.4231,128.8381,272.4801,87.6266,0,999,13659,0.0021704,0.00078426,0,3824148,0 SPACEBEE-20,1 46301U 20061AF  23053.21286524  .00078426  00000-0  21704-2 0  9999,2 46301  97.4231 128.8381 0001542 272.4801  87.6266 15.36699424136597,2020-061AF,46301,6834.014,93.707,456.933,454.826,1,
GENERATED VIA SPACETRACK.ORG API,18 SPCS,46301,SPACEBEE-20,PAYLOAD,U,20061AF,2023/2/22 5:06,556736,15.36699424,0.0001542,97.4231,128.8381,272.4801,87.6266,0,999,13659,0.0021704,0.00078426,0,3824533,0 SPACEBEE-20,1 46301U 20061AF  23053.21286524  .00078426  00000-0  21704-2 0  9999,2 46301  97.4231 128.8381 0001542 272.4801  87.6266 15.36699424136597,2020-061AF,46301,6834.014,93.707,456.933,454.826,1,
GENERATED VIA SPACETRACK.ORG API,18 SPCS,46301,SPACEBEE-20,PAYLOAD,U,20061AF,2023/2/22 22:17,268672,15.36813836,0.0001597,97.4226,129.5612,272.2519,87.8542,0,999,13670,0.0023408,0.00084974,0,3825529,0 SPACEBEE-20,1 46301U 20061AF  23053.92912348  .00084974  00000-0  23408-2 0  9995,2 46301  97.4226 129.5612 0001597 272.2519  87.8542 15.36813836136707,2020-061AF,46301,6833.675,93.7,456.632,454.449,1,
GENERATED VIA SPACETRACK.ORG API,18 SPCS,46301,SPACEBEE-20,PAYLOAD,U,20061AF,2023/2/23 4:32,557696,15.36868638,0.0001619,97.4225,129.8241,270.5843,89.5216,0,999,13674,0.002691,0.00098039,0,3826597,0 SPACEBEE-20,1 46301U 20061AF  23054.18956664  .00098039  00000-0  26910-2 0  9991,2 46301  97.4225 129.8241 0001619 270.5843  89.5216 15.36868638136744,2020-061AF,46301,6833.513,93.697,456.484,454.271,1,
GENERATED VIA SPACETRACK.ORG API,18 SPCS,46301,SPACEBEE-20,PAYLOAD,U,20061AF,2023/2/23 4:32,557696,15.36868638,0.0001619,97.4225,129.8241,270.5843,89.5216,0,999,13674,0.002691,0.00098039,0,3828819,0 SPACEBEE-20,1 46301U 20061AF  23054.18956664  .00098039  00000-0  26910-2 0  9991,2 46301  97.4225 129.8241 0001619 270.5843  89.5216 15.36868638136744,2020-061AF,46301,6833.513,93.697,456.484,454.271,1,
GENERATED VIA SPACETRACK.ORG API,18 SPCS,46301,SPACEBEE-20,PAYLOAD,U,20061AF,2023/2/24 3:59,812736,15.37049054,0.0001707,97.422,130.8102,267.4382,92.6667,0,999,13689,0.0026137,0.00095746,0,3831241,0 SPACEBEE-20,1 46301U 20061AF  23055.16615524  .00095746  00000-0  26137-2 0  9990,2 46301  97.4220 130.8102 0001707 267.4382  92.6667 15.37049054136893,2020-061AF,46301,6832.978,93.686,456.009,453.677,1,
GENERATED VIA SPACETRACK.ORG API,18 SPCS,46301,SPACEBEE-20,PAYLOAD,U,20061AF,2023/2/24 10:14,766720,15.37091309,0.0001711,97.4222,131.0736,267.6312,92.4737,0,999,13693,0.0026354,0.00096685,0,3832867,0 SPACEBEE-20,1 46301U 20061AF  23055.42655980  .00096685  00000-0  26354-2 0  9993,2 46301  97.4222 131.0736 0001711 267.6312  92.4737 15.37091309136932,2020-061AF,46301,6832.853,93.683,455.887,453.549,1,
GENERATED VIA SPACETRACK.ORG API,18 SPCS,46301,SPACEBEE-20,PAYLOAD,U,20061AF,2023/2/24 18:02,602976,15.37137655,0.000175,97.4221,131.4023,267.5346,92.5698,0,999,13698,0.0018741,0.0006858,0,3834399,0 SPACEBEE-20,1 46301U 20061AF  23055.75205559  .00068580  00000-0  18741-2 0  9996,2 46301  97.4221 131.4023 0001750 267.5346  92.5698 15.37137655136980,2020-061AF,46301,6832.715,93.681,455.776,453.385,1,
GENERATED VIA SPACETRACK.ORG API,18 SPCS,46301,SPACEBEE-20,PAYLOAD,U,20061AF,2023/2/24 18:02,602976,15.37137655,0.000175,97.4221,131.4023,267.5346,92.5698,0,999,13698,0.0018741,0.0006858,0,3835059,0 SPACEBEE-20,1 46301U 20061AF  23055.75205559  .00068580  00000-0  18741-2 0  9996,2 46301  97.4221 131.4023 0001750 267.5346  92.5698 15.37137655136980,2020-061AF,46301,6832.715,93.681,455.776,453.385,1,
GENERATED VIA SPACETRACK.ORG API,18 SPCS,46301,SPACEBEE-20,PAYLOAD,U,20061AF,2023/2/25 4:59,978272,15.3721131,0.0001792,97.4223,131.8622,265.0671,95.0369,0,999,13705,0.0019181,0.00070376,0,3837102,0 SPACEBEE-20,1 46301U 20061AF  23056.20773123  .00070376  00000-0  19181-2 0  9999,2 46301  97.4223 131.8622 0001792 265.0671  95.0369 15.37211310137054,2020-061AF,46301,6832.497,93.676,455.587,453.138,1,
GENERATED VIA SPACETRACK.ORG API,18 SPCS,46301,SPACEBEE-20,PAYLOAD,U,20061AF,2023/2/25 4:59,978272,15.3721131,0.0001792,97.4223,131.8622,265.0671,95.0369,0,999,13705,0.0019181,0.00070376,0,3837605,0 SPACEBEE-20,1 46301U 20061AF  23056.20773123  .00070376  00000-0  19181-2 0  9999,2 46301  97.4223 131.8622 0001792 265.0671  95.0369 15.37211310137054,2020-061AF,46301,6832.497,93.676,455.587,453.138,1,
